{"type": "FeatureCollection", "features": [ {"type": "Feature", "properties": {"norad_id": 32289, "name": "YAOGAN-3", "group": "resource", "lat": -18.628876465658617, "lon": 12.636896096921413, "alt_km": 603.5729440458026, "timestamp": "2025-12-09T07:41:32.859457+00:00", "meta": {"OBJECT_NAME": "YAOGAN-3", "OBJECT_ID": "2007-055A", "EPOCH": "2025-12-08T23:43:01.665408", "MEAN_MOTION": 14.89829545, "ECCENTRICITY": 0.00014429, "INCLINATION": 97.8367, "RA_OF_ASC_NODE": 9.6465, "ARG_OF_PERICENTER": 72.6475, "MEAN_ANOMALY": 287.4901, "EPHEMERIS_TYPE": 0, "CLASSIFICATION_TYPE": "U", "NORAD_CAT_ID": 32289, "ELEMENT_SET_NO": 999, "REV_AT_EPOCH": 97753, "BSTAR": 0.00021982599, "MEAN_MOTION_DOT": 2.055e-05, "MEAN_MOTION_DDOT": 0}, "tle": {"line1": "1 32289U 07055A   25342.98821372  .00002055  00000+0  21983-3 0  9994", "line2": "2 32289  97.8367   9.6465 0001442  72.6475 287.4901 14.89829545977535"}}, "geometry": {"type": "Point", "coordinates": [12.636896096921413, -18.628876465658617]}}, {"type": "Feature", "properties": {"norad_id": 32376, "name": "COSMO-SKYMED 2", "group": "resource", "lat": -5.28309104444771, "lon": 165.42949296206632, "alt_km": 626.2043775330076, "timestamp": "2025-12-09T07:41:32.859469+00:00", "meta": {"OBJECT_NAME": "COSMO-SKYMED 2", "OBJECT_ID": "2007-059A", "EPOCH": "2025-12-08T23:36:54.786816", "MEAN_MOTION": 14.82158375, "ECCENTRICITY": 0.00015311, "INCLINATION": 97.8812, "RA_OF_ASC_NODE": 164.3642, "ARG_OF_PERICENTER": 85.8713, "MEAN_ANOMALY": 274.2675, "EPHEMERIS_TYPE": 0, "CLASSIFICATION_TYPE": "U", "NORAD_CAT_ID": 32376, "ELEMENT_SET_NO": 999, "REV_AT_EPOCH": 97382, "BSTAR": 0.00011660614, "MEAN_MOTION_DOT": 8.76e-06, "MEAN_MOTION_DDOT": 0}, "tle": {"line1": "1 32376U 07059A   25342.98396744  .00000876  00000+0  11661-3 0  9996", "line2": "2 32376  97.8812 164.3642 0001531  85.8713 274.2675 14.82158375973822"}}, "geometry": {"type": "Point", "coordinates": [165.42949296206632, -5.28309104444771]}}, {"type": "Feature", "properties": {"norad_id": 32382, "name": "RADARSAT-2", "group": "resource", "lat": -44.392616999807785, "lon": 159.46062133137872, "alt_km": 799.0204488991594, "timestamp": "2025-12-09T07:41:32.859480+00:00", "meta": {"OBJECT_NAME": "RADARSAT-2", "OBJECT_ID": "2007-061A", "EPOCH": "2025-12-08T23:55:35.857920", "MEAN_MOTION": 14.29985445, "ECCENTRICITY": 0.00010741, "INCLINATION": 98.5794, "RA_OF_ASC_NODE": 347.6411, "ARG_OF_PERICENTER": 87.7122, "MEAN_ANOMALY": 272.4183, "EPHEMERIS_TYPE": 0, "CLASSIFICATION_TYPE": "U", "NORAD_CAT_ID": 32382, "ELEMENT_SET_NO": 999, "REV_AT_EPOCH": 93877, "BSTAR": 2.3292143e-05, "MEAN_MOTION_DOT": 1.6e-07, "MEAN_MOTION_DDOT": 0}, "tle": {"line1": "1 32382U 07061A   25342.99694280  .00000016  00000+0  23292-4 0  9993", "line2": "2 32382  98.5794 347.6411 0001074  87.7122 272.4183 14.29985445938779"}}, "geometry": {"type": "Point", "coordinates": [159.46062133137872, -44.392616999807785]}}, {"type": "Feature", "properties": {"norad_id": 32783, "name": "CARTOSAT-2A", "group": "resource", "lat": 5.561123022487945, "lon": -145.98546452839759, "alt_km": 642.9969188237374, "timestamp": "2025-12-09T07:41:32.859491+00:00", "meta": {"OBJECT_NAME": "CARTOSAT-2A", "OBJECT_ID": "2008-021A", "EPOCH": "2025-12-08T22:47:18.292128", "MEAN_MOTION": 14.78924138, "ECCENTRICITY": 0.00122326, "INCLINATION": 97.7931, "RA_OF_ASC_NODE": 32.8911, "ARG_OF_PERICENTER": 16.4475, "MEAN_ANOMALY": 343.7131, "EPHEMERIS_TYPE": 0, "CLASSIFICATION_TYPE": "U", "NORAD_CAT_ID": 32783, "ELEMENT_SET_NO": 999, "REV_AT_EPOCH": 95068, "BSTAR": 0.00010208581, "MEAN_MOTION_DOT": 7.03e-06, "MEAN_MOTION_DDOT": 0}, "tle": {"line1": "1 32783U 08021A   25342.94951727  .00000703  00000+0  10209-3 0  9998", "line2": "2 32783  97.7931  32.8911 0012232  16.4475 343.7131 14.78924138950689"}}, "geometry": {"type": "Point", "coordinates": [-145.98546452839759, 5.561123022487945]}}, {"type": "Feature", "properties": {"norad_id": 33320, "name": "HUANJING 1A (HJ-1A)", "group": "resource", "lat": -15.27939239172727, "lon": -26.133273853355448, "alt_km": 616.378125047996, "timestamp": "2025-12-09T07:41:32.859502+00:00", "meta": {"OBJECT_NAME": "HUANJING 1A (HJ-1A)", "OBJECT_ID": "2008-041A", "EPOCH": "2025-12-08T23:40:01.303680", "MEAN_MOTION": 14.83376055, "ECCENTRICITY": 0.00203717, "INCLINATION": 97.6538, "RA_OF_ASC_NODE": 331.441, "ARG_OF_PERICENTER": 46.0719, "MEAN_ANOMALY": 314.2172, "EPHEMERIS_TYPE": 0, "CLASSIFICATION_TYPE": "U", "NORAD_CAT_ID": 33320, "ELEMENT_SET_NO": 999, "REV_AT_EPOCH": 93020, "BSTAR": 0.00034195314, "MEAN_MOTION_DOT": 2.763e-05, "MEAN_MOTION_DDOT": 0}, "tle": {"line1": "1 33320U 08041A   25342.98612620  .00002763  00000+0  34195-3 0  9996", "line2": "2 33320  97.6538 331.4410 0020371  46.0719 314.2172 14.83376055930203"}}, "geometry": {"type": "Point", "coordinates": [-26.133273853355448, -15.27939239172727]}}, {"type": "Feature", "properties": {"norad_id": 33321, "name": "HUANJING 1B (HJ-1B)", "group": "resource", "lat": -33.160510056374136, "lon": 150.4360479151023, "alt_km": 642.665389879462, "timestamp": "2025-12-09T07:41:32.859513+00:00", "meta": {"OBJECT_NAME": "HUANJING 1B (HJ-1B)", "OBJECT_ID": "2008-041B", "EPOCH": "2025-12-08T22:38:19.786848", "MEAN_MOTION": 14.82806023, "ECCENTRICITY": 0.00382158, "INCLINATION": 97.6396, "RA_OF_ASC_NODE": 335.1069, "ARG_OF_PERICENTER": 87.7087, "MEAN_ANOMALY": 272.8502, "EPHEMERIS_TYPE": 0, "CLASSIFICATION_TYPE": "U", "NORAD_CAT_ID": 33321, "ELEMENT_SET_NO": 999, "REV_AT_EPOCH": 93021, "BSTAR": 0.00025478787, "MEAN_MOTION_DOT": 2.036e-05, "MEAN_MOTION_DDOT": 0}, "tle": {"line1": "1 33321U 08041B   25342.94328457  .00002036  00000+0  25479-3 0  9993", "line2": "2 33321  97.6396 335.1069 0038215  87.7087 272.8502 14.82806023930212"}}, "geometry": {"type": "Point", "coordinates": [150.4360479151023, -33.160510056374136]}}, {"type": "Feature", "properties": {"norad_id": 33331, "name": "GEOEYE 1", "group": "resource", "lat": 59.386843864420875, "lon": 40.67135597108516, "alt_km": 673.1610779388275, "timestamp": "2025-12-09T07:41:32.859524+00:00", "meta": {"OBJECT_NAME": "GEOEYE 1", "OBJECT_ID": "2008-042A", "EPOCH": "2025-12-08T23:13:14.302560", "MEAN_MOTION": 14.64804037, "ECCENTRICITY": 0.00027857, "INCLINATION": 98.1256, "RA_OF_ASC_NODE": 54.2953, "ARG_OF_PERICENTER": 293.4943, "MEAN_ANOMALY": 66.5967, "EPHEMERIS_TYPE": 0, "CLASSIFICATION_TYPE": "U", "NORAD_CAT_ID": 33331, "ELEMENT_SET_NO": 999, "REV_AT_EPOCH": 92230, "BSTAR": 0.00018845694, "MEAN_MOTION_DOT": 9.58e-06, "MEAN_MOTION_DDOT": 0}, "tle": {"line1": "1 33331U 08042A   25342.96752665  .00000958  00000+0  18846-3 0  9990", "line2": "2 33331  98.1256  54.2953 0002785 293.4943  66.5967 14.64804037922302"}}, "geometry": {"type": "Point", "coordinates": [40.67135597108516, 59.386843864420875]}}, {"type": "Feature", "properties": {"norad_id": 33396, "name": "THEOS", "group": "resource", "lat": 71.24204953931577, "lon": -112.0715499839474, "alt_km": 817.336505145634, "timestamp": "2025-12-09T07:41:32.859535+00:00", "meta": {"OBJECT_NAME": "THEOS", "OBJECT_ID": "2008-049A", "EPOCH": "2025-12-08T22:44:12.977952", "MEAN_MOTION": 14.20094087, "ECCENTRICITY": 0.00011291, "INCLINATION": 98.5868, "RA_OF_ASC_NODE": 41.1486, "ARG_OF_PERICENTER": 95.9434, "MEAN_ANOMALY": 264.1872, "EPHEMERIS_TYPE": 0, "CLASSIFICATION_TYPE": "U", "NORAD_CAT_ID": 33396, "ELEMENT_SET_NO": 999, "REV_AT_EPOCH": 89096, "BSTAR": -2.1350332e-05, "MEAN_MOTION_DOT": -8.8e-07, "MEAN_MOTION_DDOT": 0}, "tle": {"line1": "1 33396U 08049A   25342.94737243 -.00000088  00000+0 -21350-4 0  9992", "line2": "2 33396  98.5868  41.1486 0001129  95.9434 264.1872 14.20094087890968"}}, "geometry": {"type": "Point", "coordinates": [-112.0715499839474, 71.24204953931577]}}, {"type": "Feature", "properties": {"norad_id": 33412, "name": "COSMO-SKYMED 3", "group": "resource", "lat": -46.209887340537726, "lon": 5.385137225738452, "alt_km": 549.1035042119738, "timestamp": "2025-12-09T07:41:32.859547+00:00", "meta": {"OBJECT_NAME": "COSMO-SKYMED 3", "OBJECT_ID": "2008-054A", "EPOCH": "2025-12-08T22:42:43.426944", "MEAN_MOTION": 15.05299543, "ECCENTRICITY": 0.00157964, "INCLINATION": 97.8453, "RA_OF_ASC_NODE": 193.2746, "ARG_OF_PERICENTER": 186.9404, "MEAN_ANOMALY": 173.1606, "EPHEMERIS_TYPE": 0, "CLASSIFICATION_TYPE": "U", "NORAD_CAT_ID": 33412, "ELEMENT_SET_NO": 999, "REV_AT_EPOCH": 92830, "BSTAR": 0.00064453794, "MEAN_MOTION_DOT": 9.186e-05, "MEAN_MOTION_DDOT": 0}, "tle": {"line1": "1 33412U 08054A   25342.94633596  .00009186  00000+0  64454-3 0  9990", "line2": "2 33412  97.8453 193.2746 0015796 186.9404 173.1606 15.05299543928302"}}, "geometry": {"type": "Point", "coordinates": [5.385137225738452, -46.209887340537726]}}, {"type": "Feature", "properties": {"norad_id": 33446, "name": "YAOGAN-4", "group": "resource", "lat": 52.816310801692744, "lon": 104.02435708609748, "alt_km": 624.538169906773, "timestamp": "2025-12-09T07:41:32.859557+00:00", "meta": {"OBJECT_NAME": "YAOGAN-4", "OBJECT_ID": "2008-061A", "EPOCH": "2025-12-08T19:47:11.729184", "MEAN_MOTION": 14.82664885, "ECCENTRICITY": 0.00139192, "INCLINATION": 97.9177, "RA_OF_ASC_NODE": 272.962, "ARG_OF_PERICENTER": 336.595, "MEAN_ANOMALY": 23.4628, "EPHEMERIS_TYPE": 0, "CLASSIFICATION_TYPE": "U", "NORAD_CAT_ID": 33446, "ELEMENT_SET_NO": 999, "REV_AT_EPOCH": 91745, "BSTAR": 0.00038742009, "MEAN_MOTION_DOT": 3.075e-05, "MEAN_MOTION_DDOT": 0}, "tle": {"line1": "1 33446U 08061A   25342.82444131  .00003075  00000+0  38742-3 0  9999", "line2": "2 33446  97.9177 272.9620 0013919 336.5950  23.4628 14.82664885917457"}}, "geometry": {"type": "Point", "coordinates": [104.02435708609748, 52.816310801692744]}}]}